NORAD_CAT_ID,OBJECT_NAME,OBJECT_TYPE,EPOCH,MEAN_MOTION,ECCENTRICITY,INCLINATION,RA_OF_ASC_NODE,ARG_OF_PERICENTER,MEAN_ANOMALY,BSTAR,MEAN_MOTION_DOT,MEAN_MOTION_DDOT,TLE_LINE0,TLE_LINE1,TLE_LINE2,SEMIMAJOR_AXIS,PERIOD,APOGEE,PERIGEE,DECAYED
54085.0,STARLINK-5166,PAYLOAD,2022-12-09 16:00:00,15.4992843,0.0001250999999999,53.2173,260.9704,95.0446,60.0399,-0.001726,-0.00097352,0.0,0 STARLINK-5166,1 54085U 22136AL  22343.66667824 -.00097352  00000-0 -17260-2 0  9991,2 54085  53.2173 260.9704 0001251  95.0446  60.0399 15.49928430  8369,6795.071999999999,92.908,417.787,416.087,0.0
54085.0,STARLINK-5166,PAYLOAD,2022-12-10 00:00:00,15.49944674,0.0001373,53.2168,259.3799,103.2954,112.7508,-0.01429,-0.00750274,0.0,0 STARLINK-5166,1 54085U 22136AL  22344.00001157 -.00750274  00000-0 -14290-1 0  9999,2 54085  53.2168 259.3799 0001373 103.2954 112.7508 15.49944674  8411,6795.025,92.907,417.823,415.957,0.0
54085.0,STARLINK-5166,PAYLOAD,2022-12-10 08:00:01,15.49464658,0.0001167,53.2172,257.786,94.8862,181.8879,-0.022445,-0.01148399,0.0,0 STARLINK-5166,1 54085U 22136AL  22344.33335648 -.01148399  00000-0 -22445-1 0  9991,2 54085  53.2172 257.7860 0001167  94.8862 181.8879 15.49464658  8463,6796.428000000001,92.935,419.086,417.5,0.0
54085.0,STARLINK-5166,PAYLOAD,2022-12-10 14:00:01,15.4885078,0.0001299,53.2175,256.5912,108.8796,122.8546,-0.022795,-0.01141855,0.0,0 STARLINK-5166,1 54085U 22136AL  22344.58334491 -.01141855  00000-0 -22795-1 0  9991,2 54085  53.2175 256.5912 0001299 108.8796 122.8546 15.48850780  1305,6798.224,92.972,420.972,419.206,0.0
54085.0,STARLINK-5166,PAYLOAD,2022-12-11 00:00:00,15.47835722,0.0001078,53.2175,254.606,82.8849,312.663,-0.023705,-0.01145368,0.0,0 STARLINK-5166,1 54085U 22136AL  22345.00001157 -.01145368  00000-0 -23705-1 0  9994,2 54085  53.2175 254.6060 0001078  82.8849 312.6630 15.47835722  1304,6801.196,93.033,423.794,422.327,0.0
54085.0,STARLINK-5166,PAYLOAD,2022-12-11 08:00:01,15.47021104,0.0001152,53.2172,253.0186,78.5776,14.9876,-0.024344,-0.01143403,0.0,0 STARLINK-5166,1 54085U 22136AL  22345.33335648 -.01143403  00000-0 -24344-1 0  9993,2 54085  53.2172 253.0186 0001152  78.5776  14.9876 15.47021104  8624,6803.583000000001,93.082,426.232,424.664,0.0
54085.0,STARLINK-5166,PAYLOAD,2022-12-11 14:00:01,15.46408619,0.0001063,53.2174,251.8281,104.0979,302.2271,-0.024799,-0.01140457,0.0,0 STARLINK-5166,1 54085U 22136AL  22345.58334491 -.01140457  00000-0 -24799-1 0  9995,2 54085  53.2174 251.8281 0001063 104.0979 302.2271 15.46408619  1308,6805.379,93.119,427.968,426.521,0.0
54085.0,STARLINK-5166,PAYLOAD,2022-12-11 22:00:01,15.45596712,0.000119,53.2175,250.2455,98.5884,4.0407,-0.025572,-0.01143193,0.0,0 STARLINK-5166,1 54085U 22136AL  22345.91668981 -.01143193  00000-0 -25572-1 0  9996,2 54085  53.2175 250.2455 0001190  98.5884   4.0407 15.45596712  1307,6807.762,93.168,430.437,428.817,0.0
54085.0,STARLINK-5166,PAYLOAD,2022-12-12 08:00:01,15.44581426,0.0001227,53.2172,248.2688,96.2302,165.2599,-0.02656,-0.01146329,0.0,0 STARLINK-5166,1 54085U 22136AL  22346.33334491 -.01146329  00000-0 -26560-1 0  9991,2 54085  53.2172 248.2688 0001227  96.2302 165.2599 15.44581426  8775,6810.745,93.229,433.446,431.775,0.0
54085.0,STARLINK-5166,PAYLOAD,2022-12-12 14:00:01,15.43968066,0.0001326,53.2173,247.0826,106.9315,105.1828,-0.026973,-0.01140545,0.0,0 STARLINK-5166,1 54085U 22136AL  22346.58334491 -.01140545  00000-0 -26973-1 0  9990,2 54085  53.2173 247.0826 0001326 106.9315 105.1828 15.43968066  1308,6812.549,93.266,435.317,433.511,0.0
54085.0,STARLINK-5166,PAYLOAD,2022-12-12 22:00:00,15.43165134,0.0001274,53.2168,245.5063,110.4961,154.9195,-0.028115,-0.01155384,0.0,0 STARLINK-5166,1 54085U 22136AL  22346.91667824 -.01155384  00000-0 -28115-1 0  9993,2 54085  53.2168 245.5063 0001274 110.4961 154.9195 15.43165134  1301,6814.9119999999975,93.315,437.645,435.909,0.0
54085.0,STARLINK-5166,PAYLOAD,2022-12-13 06:00:00,15.42342366,0.0001139,53.2172,243.9305,107.8015,209.9478,-0.028556,-0.0114244,0.0,0 STARLINK-5166,1 54085U 22136AL  22347.25001157 -.01142440  00000-0 -28556-1 0  9990,2 54085  53.2172 243.9305 0001139 107.8015 209.9478 15.42342366  8920,6817.335,93.364,439.977,438.424,0.0
54085.0,STARLINK-5166,PAYLOAD,2022-12-13 14:00:01,15.41525249,0.0001093,53.2173,242.3545,108.8815,260.2224,-0.029227,-0.0113797,0.0,0 STARLINK-5166,1 54085U 22136AL  22347.58334491 -.01137970  00000-0 -29227-1 0  9994,2 54085  53.2173 242.3545 0001093 108.8815 260.2224 15.41525249  1304,6819.744000000002,93.414,442.355,440.864,0.0
54085.0,STARLINK-5166,PAYLOAD,2022-12-13 22:00:00,15.40714214,0.0001153,53.2175,240.7839,105.711,313.7648,-0.030146,-0.01141966,0.0,0 STARLINK-5166,1 54085U 22136AL  22347.91667824 -.01141966  00000-0 -30146-1 0  9992,2 54085  53.2175 240.7839 0001153 105.7110 313.7648 15.40714214  9027,6822.137,93.463,444.789,443.216,0.0
54085.0,STARLINK-5166,PAYLOAD,2022-12-14 14:00:01,15.39085878,0.0001291999999999,53.2172,237.6442,97.1492,60.1423,-0.031788,-0.01140944,0.0,0 STARLINK-5166,1 54085U 22136AL  22348.58334491 -.01140944  00000-0 -31788-1 0  9995,2 54085  53.2172 237.6442 0001292  97.1492  60.1423 15.39085878  1302,6826.948,93.562,449.695,447.931,0.0
54085.0,STARLINK-5166,PAYLOAD,2022-12-14 22:00:00,15.38282453,0.0001428,53.217,236.0795,114.1574,90.5684,-0.033061,-0.01154419,0.0,0 STARLINK-5166,1 54085U 22136AL  22348.91667824 -.01154419  00000-0 -33061-1 0  9999,2 54085  53.2170 236.0795 0001428 114.1574  90.5684 15.38282453  1309,6829.325,93.611,452.165,450.215,0.0
54085.0,STARLINK-5166,PAYLOAD,2022-12-15 02:00:01,15.37865148,0.0001197,53.2176,235.2973,113.3987,294.6854,-0.033065,-0.0114014,0.0,0 STARLINK-5166,1 54085U 22136AL  22349.08334491 -.01140140  00000-0 -33065-1 0  9999,2 54085  53.2176 235.2973 0001197 113.3987 294.6854 15.37865148  9206,6830.56,93.636,453.24300000000005,451.608,0.0
54085.0,STARLINK-5166,PAYLOAD,2022-12-15 14:00:01,15.36642747,0.0001239,53.2174,232.9507,106.9403,189.7395,-0.03431,-0.01137127,0.0,0 STARLINK-5166,1 54085U 22136AL  22349.58334491 -.01137127  00000-0 -34310-1 0  9999,2 54085  53.2174 232.9507 0001239 106.9403 189.7395 15.36642747  1303,6834.182,93.711,456.894,455.201,0.0
54085.0,STARLINK-5166,PAYLOAD,2022-12-15 22:00:00,15.3583031,0.000116,53.2175,231.3918,100.3976,240.7873,-0.035273,-0.01138526,0.0,0 STARLINK-5166,1 54085U 22136AL  22349.91667824 -.01138526  00000-0 -35273-1 0  9998,2 54085  53.2175 231.3918 0001160 100.3976 240.7873 15.35830310  1302,6836.592,93.76,459.25,457.664,0.0
54085.0,STARLINK-5166,PAYLOAD,2022-12-16 04:00:00,15.35219007,0.0001211,53.2172,230.2231,95.4413,188.4819,-0.03589,-0.01136073,0.0,0 STARLINK-5166,1 54085U 22136AL  22350.16667824 -.01136073  00000-0 -35890-1 0  9997,2 54085  53.2172 230.2231 0001211  95.4413 188.4819 15.35219007  9379,6838.406999999997,93.798,461.1,459.444,0.0
54085.0,STARLINK-5166,PAYLOAD,2022-12-16 14:00:01,15.34201278,0.0001233,53.2172,228.2752,105.5317,321.735,-0.037107,-0.01136808,0.0,0 STARLINK-5166,1 54085U 22136AL  22350.58334491 -.01136808  00000-0 -37107-1 0  9993,2 54085  53.2172 228.2752 0001233 105.5317 321.7350 15.34201278  1301,6841.431,93.86,464.139,462.452,0.0
54085.0,STARLINK-5166,PAYLOAD,2022-12-16 22:00:00,15.33389451,0.0001266,53.2174,226.7219,99.5374,9.3007,-0.03816,-0.01138993,0.0,0 STARLINK-5166,1 54085U 22136AL  22350.91667824 -.01138993  00000-0 -38160-1 0  9996,2 54085  53.2174 226.7219 0001266  99.5374   9.3007 15.33389451  1302,6843.845,93.91,466.577,464.844,0.0
54085.0,STARLINK-5166,PAYLOAD,2022-12-17 00:00:00,15.33185542,0.0001424,53.2175,226.3338,103.5496,105.529,-0.038365,-0.01137861,0.0,0 STARLINK-5166,1 54085U 22136AL  22351.00001157 -.01137861  00000-0 -38365-1 0  9998,2 54085  53.2175 226.3338 0001424 103.5496 105.5290 15.33185542  9494,6844.4519999999975,93.922,467.292,465.343,0.0
54085.0,STARLINK-5166,PAYLOAD,2022-12-17 14:00:01,15.31767906,0.0001379,53.2166,223.6172,100.0533,89.0594,-0.040499,-0.01147557,0.0,0 STARLINK-5166,1 54085U 22136AL  22351.58335648 -.01147557  00000-0 -40499-1 0  9990,2 54085  53.2166 223.6172 0001379 100.0533  89.0594 15.31767906  1306,6848.675,94.009,471.484,469.595,0.0
54085.0,STARLINK-5166,PAYLOAD,2022-12-17 22:00:00,15.30925428,0.0001524,53.2169,222.0695,122.2745,105.4268,-0.039981,-0.01107071,0.0,0 STARLINK-5166,1 54085U 22136AL  22351.91667824 -.01107071  00000-0 -39981-1 0  9992,2 54085  53.2169 222.0695 0001524 122.2745 105.4268 15.30925428  9634,6851.187,94.061,474.096,472.008,0.0
54085.0,STARLINK-5166,PAYLOAD,2022-12-18 14:00:01,15.29318616,0.0001556,53.2174,218.9751,130.5065,171.532,-0.043204,-0.01135235,0.0,0 STARLINK-5166,1 54085U 22136AL  22352.58334491 -.01135235  00000-0 -43204-1 0  9993,2 54085  53.2174 218.9751 0001556 130.5065 171.5320 15.29318616  1301,6855.985,94.16,478.917,476.783,0.0
54085.0,STARLINK-5166,PAYLOAD,2022-12-18 22:00:00,15.28506521,0.0001225,53.2173,217.4338,104.948,232.7947,-0.044407,-0.01137598,0.0,0 STARLINK-5166,1 54085U 22136AL  22352.91667824 -.01137598  00000-0 -44407-1 0  9999,2 54085  53.2173 217.4338 0001225 104.9480 232.7947 15.28506521  1302,6858.413000000001,94.21,481.11800000000005,479.43800000000016,0.0
54085.0,STARLINK-5166,PAYLOAD,2022-12-19 12:00:00,15.27079675,0.0001274,53.2173,214.736,111.7076,196.17,-0.046182,-0.01132809,0.0,0 STARLINK-5166,1 54085U 22136AL  22353.50001157 -.01132809  00000-0 -46182-1 0  9998,2 54085  53.2173 214.7360 0001274 111.7076 196.1700 15.27079675  1302,6862.685,94.298,485.424,483.675,0.0
54085.0,STARLINK-5166,PAYLOAD,2022-12-19 16:00:00,15.26674292,0.0001367,53.2177,213.967,100.7523,43.7553,-0.04684,-0.01134656,0.0,0 STARLINK-5166,1 54085U 22136AL  22353.66667824 -.01134656  00000-0 -46840-1 0  9997,2 54085  53.2177 213.9670 0001367 100.7523  43.7553 15.26674292  9901,6863.899,94.323,486.703,484.826,0.0
